NORAD_CAT_ID,OBJECT_NAME,OBJECT_TYPE,EPOCH,MEAN_MOTION,ECCENTRICITY,INCLINATION,RA_OF_ASC_NODE,ARG_OF_PERICENTER,MEAN_ANOMALY,BSTAR,MEAN_MOTION_DOT,MEAN_MOTION_DDOT,TLE_LINE0,TLE_LINE1,TLE_LINE2,SEMIMAJOR_AXIS,PERIOD,APOGEE,PERIGEE,DECAYED
50839.0,STARLINK-3320,PAYLOAD,2024-04-28 20:40:38,15.08836564,0.0001202,53.219,350.9909,76.6958,283.4168,0.0002008,2.909e-05,0.0,0 STARLINK-3320,1 50839U 22001AN  24119.86155952  .00002909  00000-0  20080-3 0  9991,2 50839  53.2190 350.9909 0001202  76.6958 283.4168 15.08836564128906,6917.891,95.438,540.587,538.924,0.0
50839.0,STARLINK-3320,PAYLOAD,2024-04-28 22:16:01,15.08841501,0.0001162,53.2195,350.6908,82.4283,277.6841,0.00017713,2.532e-05,0.0,0 STARLINK-3320,1 50839U 22001AN  24119.92779726  .00002532  00000-0  17713-3 0  9990,2 50839  53.2195 350.6908 0001162  82.4283 277.6841 15.08841501127637,6917.876,95.437,540.545,538.937,0.0
50839.0,STARLINK-3320,PAYLOAD,2024-04-29 07:48:20,15.0884254,0.0001175,53.219,348.9056,77.4301,282.6822,0.00024329,3.586e-05,0.0,0 STARLINK-3320,1 50839U 22001AN  24120.32523766  .00003586  00000-0  24329-3 0  9998,2 50839  53.2190 348.9056 0001175  77.4301 282.6822 15.08842540127690,6917.873,95.437,540.55,538.925,0.0
50839.0,STARLINK-3320,PAYLOAD,2024-04-29 22:06:48,15.08840494,0.0001093,53.2187,346.2334,83.6278,276.4839,0.00016553,2.348e-05,0.0,0 STARLINK-3320,1 50839U 22001AN  24120.92139890  .00002348  00000-0  16553-3 0  9990,2 50839  53.2187 346.2334 0001093  83.6278 276.4839 15.08840494129065,6917.879,95.438,540.5,538.988,0.0
50839.0,STARLINK-3320,PAYLOAD,2024-04-30 07:39:07,15.08841521,0.0001079,53.2176,344.4482,82.4326,277.6789,9.2733e-05,1.188e-05,0.0,0 STARLINK-3320,1 50839U 22001AN  24121.31883775  .00001188  00000-0  92733-4 0  9998,2 50839  53.2176 344.4482 0001079  82.4326 277.6789 15.08841521127845,6917.876,95.437,540.487,538.994,0.0
50839.0,STARLINK-3320,PAYLOAD,2024-04-30 20:22:12,15.08841036,0.0001026,53.2172,342.0663,69.0561,291.0541,6.3286e-05,7.2e-06,0.0,0 STARLINK-3320,1 50839U 22001AN  24121.84875867  .00000720  00000-0  63286-4 0  9991,2 50839  53.2172 342.0663 0001026  69.0561 291.0541 15.08841036127926,6917.877,95.437,540.452,539.032,0.0
50839.0,STARLINK-3320,PAYLOAD,2024-05-01 07:29:54,15.08846996,0.0001055,53.2176,339.9858,73.7175,286.3933,0.00013325,1.834e-05,0.0,0 STARLINK-3320,1 50839U 22001AN  24122.31243507  .00001834  00000-0  13325-3 0  9999,2 50839  53.2176 339.9858 0001055  73.7175 286.3933 15.08846996129278,6917.859,95.437,540.454,538.994,0.0
50839.0,STARLINK-3320,PAYLOAD,2024-05-01 23:23:46,15.08838706,0.0001187,53.2183,337.012,73.904,286.2083,-4.2565e-05,-9.65e-06,0.0,0 STARLINK-3320,1 50839U 22001AN  24122.97483992 -.00000965  00000-0 -42565-4 0  9990,2 50839  53.2183 337.0120 0001187  73.9040 286.2083 15.08838706129372,6917.884,95.438,540.57,538.928,0.0
50839.0,STARLINK-3320,PAYLOAD,2024-05-02 07:20:41,15.08839104,0.0001164,53.2184,335.5261,78.4945,281.6178,-1.122e-05,-4.66e-06,0.0,0 STARLINK-3320,1 50839U 22001AN  24123.30604024 -.00000466  00000-0 -11220-4 0  9999,2 50839  53.2184 335.5261 0001164  78.4945 281.6178 15.08839104128142,6917.883,95.438,540.553,538.943,0.0
50839.0,STARLINK-3320,PAYLOAD,2024-05-02 21:39:09,15.08850978,0.0001063,53.218,332.8507,76.3953,283.7157,0.00012613,1.721e-05,0.0,0 STARLINK-3320,1 50839U 22001AN  24123.90219431  .00001721  00000-0  12613-3 0  9998,2 50839  53.2180 332.8507 0001063  76.3953 283.7157 15.08850978129519,6917.847,95.437,540.447,538.976,0.0
50839.0,STARLINK-3320,PAYLOAD,2024-05-03 07:11:28,15.08846164,0.0001133,53.2181,331.0663,78.7461,281.3658,9.2162e-05,1.179e-05,0.0,0 STARLINK-3320,1 50839U 22001AN  24124.29963721  .00001179  00000-0  92162-4 0  9994,2 50839  53.2181 331.0663 0001133  78.7461 281.3658 15.08846164129570,6917.862,95.437,540.51,538.943,0.0
50839.0,STARLINK-3320,PAYLOAD,2024-05-03 19:54:34,15.08839235,0.0001022,53.2164,328.686,87.3044,272.8065,9.7709e-05,1.268e-05,0.0,0 STARLINK-3320,1 50839U 22001AN  24124.82956066  .00001268  00000-0  97709-4 0  9998,2 50839  53.2164 328.6860 0001022  87.3044 272.8065 15.08839235129659,6917.883,95.438,540.455,539.041,0.0
50839.0,STARLINK-3320,PAYLOAD,2024-05-05 13:14:35,15.0883107,0.0001142,53.2177,320.9543,95.3861,264.7261,0.00017189,2.448e-05,0.0,0 STARLINK-3320,1 50839U 22001AN  24126.55180507  .00002448  00000-0  17189-3 0  9993,2 50839  53.2177 320.9543 0001142  95.3861 264.7261 15.08831070129911,6917.908,95.438,540.563,538.983,0.0
50839.0,STARLINK-3320,PAYLOAD,2024-05-05 19:36:08,15.08834811,0.0001085,53.2178,319.7647,95.6871,264.4245,0.00016709,2.372e-05,0.0,0 STARLINK-3320,1 50839U 22001AN  24126.81676324  .00002372  00000-0  16709-3 0  9992,2 50839  53.2178 319.7647 0001085  95.6871 264.4245 15.08834811128670,6917.896,95.438,540.512,539.011,0.0
50839.0,STARLINK-3320,PAYLOAD,2024-05-06 19:26:54,15.08851882,0.0001393,53.2186,315.3078,99.9429,260.1721,8.2586e-05,1.027e-05,0.0,0 STARLINK-3320,1 50839U 22001AN  24127.81035302  .00001027  00000-0  82586-4 0  9991,2 50839  53.2186 315.3078 0001393  99.9429 260.1721 15.08851882130107,6917.844,95.437,540.673,538.745,0.0
50839.0,STARLINK-3320,PAYLOAD,2024-05-07 04:59:13,15.08840709,0.0001073,53.2179,313.5201,81.9198,278.1916,9.6585e-05,1.25e-05,0.0,0 STARLINK-3320,1 50839U 22001AN  24128.20780010  .00001250  00000-0  96585-4 0  9990,2 50839  53.2179 313.5201 0001073  81.9198 278.1916 15.08840709130163,6917.878,95.438,540.486,539.001,0.0
50839.0,STARLINK-3320,PAYLOAD,2024-05-07 12:56:10,15.0883608,0.0001255,53.2191,312.036,89.3141,270.7995,3.1146e-05,2.08e-06,0.0,0 STARLINK-3320,1 50839U 22001AN  24128.53900591  .00000208  00000-0  31146-4 0  9998,2 50839  53.2191 312.0360 0001255  89.3141 270.7995 15.08836080128933,6917.892,95.438,540.626,538.889,0.0
50839.0,STARLINK-3320,PAYLOAD,2024-05-07 19:17:42,15.08836369,0.0001203,53.2192,310.8479,102.7959,257.3168,5.0424e-05,5.15e-06,0.0,0 STARLINK-3320,1 50839U 22001AN  24128.80396436  .00000515  00000-0  50424-4 0  9996,2 50839  53.2192 310.8479 0001203 102.7959 257.3168 15.08836369128978,6917.891,95.438,540.589,538.924,0.0
50839.0,STARLINK-3320,PAYLOAD,2024-05-08 04:50:01,15.08836271,0.0001117,53.2185,309.0624,95.4319,264.68,1.7342e-05,-1.2e-07,0.0,0 STARLINK-3320,1 50839U 22001AN  24129.20140723 -.00000012  00000-0  17342-4 0  9992,2 50839  53.2185 309.0624 0001117  95.4319 264.6800 15.08836271130311,6917.892,95.438,540.53,538.984,0.0
50839.0,STARLINK-3320,PAYLOAD,2024-05-08 11:11:35,15.08827083,0.0001738,53.2173,307.8711,81.3534,278.7655,-0.00016237,-2.87e-05,0.0,0 STARLINK-3320,1 50839U 22001AN  24129.46638343 -.00002870  00000-0 -16237-3 0  9996,2 50839  53.2173 307.8711 0001738  81.3534 278.7655 15.08827083130352,6917.92,95.438,540.987,538.583,0.0
50839.0,STARLINK-3320,PAYLOAD,2024-05-08 19:08:32,15.08818152,0.000111,53.2181,306.3849,85.1232,274.9886,-0.00021584,-3.719e-05,0.0,0 STARLINK-3320,1 50839U 22001AN  24129.79759318 -.00003719  00000-0 -21584-3 0  9992,2 50839  53.2181 306.3849 0001110  85.1232 274.9886 15.08818152130405,6917.947,95.439,540.58,539.044,0.0
50839.0,STARLINK-3320,PAYLOAD,2024-05-09 04:40:49,15.08831236,9.8e-05,53.217,304.5996,80.2081,279.9022,1.0437e-05,-1.22e-06,0.0,0 STARLINK-3320,1 50839U 22001AN  24130.19502216 -.00000122  00000-0  10437-4 0  9991,2 50839  53.2170 304.5996 0000980  80.2081 279.9022 15.08831236130469,6917.907,95.438,540.45,539.094,0.0
50839.0,STARLINK-3320,PAYLOAD,2024-05-09 11:02:22,15.08828578,3.32e-05,53.2167,303.407,76.8034,283.2995,0.00018358,2.635e-05,0.0,0 STARLINK-3320,1 50839U 22001AN  24130.45997872  .00002635  00000-0  18358-3 0  9995,2 50839  53.2167 303.4070 0000332  76.8034 283.2995 15.08828578129220,6917.915,95.438,540.01,539.551,0.0
50839.0,STARLINK-3320,PAYLOAD,2024-05-09 18:59:16,15.08860305,7.62e-05,53.216,301.9228,104.8859,255.2217,0.00028635,4.275e-05,0.0,0 STARLINK-3320,1 50839U 22001AN  24130.79115782  .00004275  00000-0  28635-3 0  9995,2 50839  53.2160 301.9228 0000762 104.8859 255.2217 15.08860305130553,6917.818,95.436,540.21,539.156,0.0
50839.0,STARLINK-3320,PAYLOAD,2024-05-10 04:31:35,15.08856082,0.0001046,53.218,300.1403,87.3862,272.725,0.0002445,3.607e-05,0.0,0 STARLINK-3320,1 50839U 22001AN  24131.18860241  .00003607  00000-0  24450-3 0  9995,2 50839  53.2180 300.1403 0001046  87.3862 272.7250 15.08856082130611,6917.831,95.437,540.42,538.973,0.0
50839.0,STARLINK-3320,PAYLOAD,2024-05-10 10:53:08,15.08838676,8.64e-05,53.218,298.9526,87.1158,272.9933,0.00043952,6.714e-05,0.0,0 STARLINK-3320,1 50839U 22001AN  24131.45356880  .00006714  00000-0  43952-3 0  9994,2 50839  53.2180 298.9526 0000864  87.1158 272.9933 15.08838676130657,6917.884,95.438,540.347,539.152,0.0
50839.0,STARLINK-3320,PAYLOAD,2024-05-10 18:50:03,15.08851763,8.87e-05,53.2183,297.4614,87.3652,272.7441,0.0004001,6.088e-05,0.0,0 STARLINK-3320,1 50839U 22001AN  24131.78476173  .00006088  00000-0  40010-3 0  9994,2 50839  53.2183 297.4614 0000887  87.3652 272.7441 15.08851763130708,6917.844,95.437,540.323,539.096,0.0
50839.0,STARLINK-3320,PAYLOAD,2024-05-11 10:43:51,15.08906857,8.38e-05,53.2179,294.4884,81.2619,278.8468,0.00051677,7.961e-05,0.0,0 STARLINK-3320,1 50839U 22001AN  24132.44712527  .00007961  00000-0  51677-3 0  9996,2 50839  53.2179 294.4884 0000838  81.2619 278.8468 15.08906857130803,6917.676,95.433,540.121,538.961,0.0
50839.0,STARLINK-3320,PAYLOAD,2024-05-11 17:05:25,15.0886579,0.0001572,53.2175,293.2989,117.3834,242.7318,-0.00022534,-3.875e-05,0.0,0 STARLINK-3320,1 50839U 22001AN  24132.71209680 -.00003875  00000-0 -22534-3 0  9999,2 50839  53.2175 293.2989 0001572 117.3834 242.7318 15.08865790130846,6917.802,95.436,540.754,538.579,0.0
50839.0,STARLINK-3320,PAYLOAD,2024-05-12 04:13:11,15.08751958,0.0002128,53.2172,291.2219,82.8343,277.2891,-0.0021976,-0.0003501,0.0,0 STARLINK-3320,1 50839U 22001AN  24133.17582940 -.00035010  00000-0 -21976-2 0  9997,2 50839  53.2172 291.2219 0002128  82.8343 277.2891 15.08751958130913,6918.15,95.443,541.487,538.542,0.0
